IRIDIUM 171             
1 43929U 19002H   24249.12803890  .00000244  00000+0  80155-4 0  9993
2 43929  86.3916 265.4447 0002267  99.4509 260.6943 14.34220263295785
IRIDIUM 170             
1 43930U 19002J   24249.52979589  .00001087  00000+0  16850-3 0  9994
2 43930  86.6038 265.0821 0002532  91.0162 269.1345 14.72251394303674
IRIDIUM 167             
1 43931U 19002K   24249.12170079  .00000172  00000+0  54339-4 0  9997
2 43931  86.3908 265.2295 0002207  94.7369 265.4079 14.34218148295786
IRIDIUM 181             
1 56726U 23068S   24248.61318588  .00001573  00000+0  45870-3 0  9997
2 56726  86.8661 323.0620 0001954 100.4688 259.6733 14.43591808 68591
IRIDIUM 177             
1 56727U 23068T   24248.65700056  .00003813  00000+0  49831-3 0  9997
2 56727  86.1927 277.6230 0001854  94.3909 265.7524 14.80228640 70138
IRIDIUM 174             
1 56728U 23068U   24249.12474905  .00002331  00000+0  30297-3 0  9992
2 56728  86.1927 277.5110 0001824 105.9424 254.1998 14.80278003 70206
IRIDIUM 178             
1 56729U 23068V   24248.24063191  .00004907  00000+0  64177-3 0  9991
2 56729  86.5759 299.1551 0002139 100.8327 259.3136 14.80255170 70075
IRIDIUM 179             
1 56730U 23068W   24248.70858916  .00005616  00000+0  73540-3 0  9993
2 56730  86.6776 304.0942 0002056  88.7768 271.3689 14.80229952 70142
